start=new Date('2023-04-16T00:00:00.000Z').valueOf();
sats=[{"CLASSIFICATION_TYPE":"U","GP_ID":"230127076","OBJECT_TYPE":"PAYLOAD","FILE":"3888171","TIME_SYSTEM":"UTC","OBJECT_NAME":"STARLINK-1211","SEMIMAJOR_AXIS":"6831.411","MEAN_ANOMALY":"68.5853","EPOCH":"2023-04-15T22:00:01.999584","ELEMENT_SET_NO":"999","REF_FRAME":"TEME","PERIAPSIS":"452.230","RA_OF_ASC_NODE":"96.0979","MEAN_MOTION_DDOT":"0.0000000000000","MEAN_MOTION_DOT":"0.00582692","BSTAR":"0.01458900000000","SITE":"AFETR","MEAN_ELEMENT_THEORY":"SGP4","MEAN_MOTION":"15.37578067","TLE_LINE2":"2 45208  53.0130  96.0979 0001531 103.4331  68.5853 15.37578067  1306","TLE_LINE1":"1 45208U 20012AG  23105.91668981  .00582692  00000-0  14589-1 0  9993","EPHEMERIS_TYPE":"0","APOAPSIS":"454.322","INCLINATION":"53.0130","REV_AT_EPOCH":"130","ARG_OF_PERICENTER":"103.4331","PERIOD":"93.654","OBJECT_ID":"2020-012AG","COUNTRY_CODE":"US","NORAD_CAT_ID":"45208","DECAY_DATE":null,"RCS_SIZE":"LARGE","LAUNCH_DATE":"2020-02-17","CENTER_NAME":"EARTH","ECCENTRICITY":"0.00015310"},{"PERIAPSIS":"545.416","REF_FRAME":"TEME","ELEMENT_SET_NO":"999","MEAN_ELEMENT_THEORY":"SGP4","SITE":"AFETR","MEAN_MOTION_DDOT":"0.0000000000000","MEAN_MOTION_DOT":"0.00018225","BSTAR":"0.00123060000000","RA_OF_ASC_NODE":"100.5438","OBJECT_TYPE":"PAYLOAD","FILE":"3888171","TIME_SYSTEM":"UTC","CLASSIFICATION_TYPE":"U","GP_ID":"230126826","EPOCH":"2023-04-15T17:04:51.789792","SEMIMAJOR_AXIS":"6924.554","MEAN_ANOMALY":"268.5503","OBJECT_NAME":"STARLINK-1219","COUNTRY_CODE":"US","ARG_OF_PERICENTER":"91.5652","PERIOD":"95.576","OBJECT_ID":"2020-012AJ","LAUNCH_DATE":"2020-02-17","ECCENTRICITY":"0.00014480","CENTER_NAME":"EARTH","RCS_SIZE":"LARGE","DECAY_DATE":null,"NORAD_CAT_ID":"45210","TLE_LINE2":"2 45210  53.0515 100.5438 0001448  91.5652 268.5503 15.06659313175392","MEAN_MOTION":"15.06659313","REV_AT_EPOCH":"17539","TLE_LINE1":"1 45210U 20012AJ  23105.71171053  .00018225  00000-0  12306-2 0  9995","APOAPSIS":"547.422","EPHEMERIS_TYPE":"0","INCLINATION":"53.0515"},{"TLE_LINE2":"2 45212  53.0530 100.6969 0001387  98.8525 261.2621 15.06403944175457","MEAN_MOTION":"15.06403944","REV_AT_EPOCH":"17545","INCLINATION":"53.0530","TLE_LINE1":"1 45212U 20012AL  23105.67930024  .00005638  00000-0  39704-3 0  9999","APOAPSIS":"548.162","EPHEMERIS_TYPE":"0","COUNTRY_CODE":"US","PERIOD":"95.592","OBJECT_ID":"2020-012AL","ARG_OF_PERICENTER":"98.8525","CENTER_NAME":"EARTH","LAUNCH_DATE":"2020-02-17","ECCENTRICITY":"0.00013870","RCS_SIZE":"LARGE","NORAD_CAT_ID":"45212","DECAY_DATE":null,"TIME_SYSTEM":"UTC","OBJECT_TYPE":"PAYLOAD","FILE":"3888171","GP_ID":"230128075","CLASSIFICATION_TYPE":"U","EPOCH":"2023-04-15T16:18:11.540736","SEMIMAJOR_AXIS":"6925.336","MEAN_ANOMALY":"261.2621","OBJECT_NAME":"STARLINK-1231","PERIAPSIS":"546.241","ELEMENT_SET_NO":"999","REF_FRAME":"TEME","MEAN_ELEMENT_THEORY":"SGP4","SITE":"AFETR","BSTAR":"0.00039704000000","MEAN_MOTION_DOT":"0.00005638","MEAN_MOTION_DDOT":"0.0000000000000","RA_OF_ASC_NODE":"100.6969"},{"SITE":"AFETR","MEAN_ELEMENT_THEORY":"SGP4","RA_OF_ASC_NODE":"347.3018","BSTAR":"0.00078295000000","MEAN_MOTION_DOT":"0.00051812","MEAN_MOTION_DDOT":"0.0000000000000","REF_FRAME":"TEME","ELEMENT_SET_NO":"999","PERIAPSIS":"401.161","EPOCH":"2023-04-15T21:34:36.665472","OBJECT_NAME":"STARLINK-1232","SEMIMAJOR_AXIS":"6782.563","MEAN_ANOMALY":"249.9704","TIME_SYSTEM":"UTC","OBJECT_TYPE":"PAYLOAD","FILE":"3888171","GP_ID":"230128322","CLASSIFICATION_TYPE":"U","RCS_SIZE":"LARGE","CENTER_NAME":"EARTH","LAUNCH_DATE":"2020-02-17","ECCENTRICITY":"0.00048160","DECAY_DATE":null,"NORAD_CAT_ID":"45213","PERIOD":"92.651","OBJECT_ID":"2020-012AM","ARG_OF_PERICENTER":"110.1824","COUNTRY_CODE":"US","INCLINATION":"53.0548","TLE_LINE1":"1 45213U 20012AM  23105.89903548  .00051812  00000-0  78295-3 0  9998","APOAPSIS":"407.694","EPHEMERIS_TYPE":"0","REV_AT_EPOCH":"17713","TLE_LINE2":"2 45213  53.0548 347.3018 0004816 110.1824 249.9704 15.54218268177130","MEAN_MOTION":"15.54218268"},{"ARG_OF_PERICENTER":"84.7096","OBJECT_ID":"2020-012AN","PERIOD":"95.592","COUNTRY_CODE":"US","NORAD_CAT_ID":"45214","DECAY_DATE":null,"RCS_SIZE":"LARGE","LAUNCH_DATE":"2020-02-17","CENTER_NAME":"EARTH","ECCENTRICITY":"0.00019820","MEAN_MOTION":"15.06396816","TLE_LINE2":"2 45214  53.0539 100.5117 0001982  84.7096 275.4119 15.06396816175504","EPHEMERIS_TYPE":"0","TLE_LINE1":"1 45214U 20012AN  23105.71891036  .00000427  00000-0  47561-4 0  9997","APOAPSIS":"548.596","INCLINATION":"53.0539","REV_AT_EPOCH":"17550","ELEMENT_SET_NO":"999","REF_FRAME":"TEME","PERIAPSIS":"545.851","RA_OF_ASC_NODE":"100.5117","MEAN_MOTION_DDOT":"0.0000000000000","MEAN_MOTION_DOT":"0.00000427","BSTAR":"0.00004756100000","SITE":"AFETR","MEAN_ELEMENT_THEORY":"SGP4","CLASSIFICATION_TYPE":"U","GP_ID":"230126577","OBJECT_TYPE":"PAYLOAD","FILE":"3888171","TIME_SYSTEM":"UTC","OBJECT_NAME":"STARLINK-1233","MEAN_ANOMALY":"275.4119","SEMIMAJOR_AXIS":"6925.358","EPOCH":"2023-04-15T17:15:13.855104"},{"ARG_OF_PERICENTER":"91.8611","PERIOD":"95.592","OBJECT_ID":"2020-012AP","COUNTRY_CODE":"US","RCS_SIZE":"LARGE","LAUNCH_DATE":"2020-02-17","CENTER_NAME":"EARTH","ECCENTRICITY":"0.00014850","NORAD_CAT_ID":"45215","DECAY_DATE":null,"TLE_LINE2":"2 45215  53.0546 100.5317 0001485  91.8611 268.2548 15.06398585175449","MEAN_MOTION":"15.06398585","EPHEMERIS_TYPE":"0","TLE_LINE1":"1 45215U 20012AP  23105.71616446 -.00000108  00000-0  11662-4 0  9998","APOAPSIS":"548.246","INCLINATION":"53.0546","REV_AT_EPOCH":"17544","ELEMENT_SET_NO":"999","REF_FRAME":"TEME","PERIAPSIS":"546.189","SITE":"AFETR","MEAN_ELEMENT_THEORY":"SGP4","RA_OF_ASC_NODE":"100.5317","MEAN_MOTION_DOT":"-0.00000108","MEAN_MOTION_DDOT":"0.0000000000000","BSTAR":"0.00001166200000","FILE":"3888171","OBJECT_TYPE":"PAYLOAD","TIME_SYSTEM":"UTC","CLASSIFICATION_TYPE":"U","GP_ID":"230127325","EPOCH":"2023-04-15T17:11:16.609344","OBJECT_NAME":"STARLINK-1245","MEAN_ANOMALY":"268.2548","SEMIMAJOR_AXIS":"6925.353"},{"MEAN_MOTION":"15.06408795","TLE_LINE2":"2 45217  53.0524 100.6488 0001590  90.4153 269.7018 15.06408795175500","REV_AT_EPOCH":"17550","INCLINATION":"53.0524","TLE_LINE1":"1 45217U 20012AR  23105.69035853  .00001746  00000-0  13605-3 0  9990","EPHEMERIS_TYPE":"0","APOAPSIS":"548.288","COUNTRY_CODE":"US","OBJECT_ID":"2020-012AR","PERIOD":"95.592","ARG_OF_PERICENTER":"90.4153","DECAY_DATE":null,"NORAD_CAT_ID":"45217","LAUNCH_DATE":"2020-02-17","CENTER_NAME":"EARTH","ECCENTRICITY":"0.00015900","RCS_SIZE":"LARGE","GP_ID":"230127577","CLASSIFICATION_TYPE":"U","TIME_SYSTEM":"UTC","FILE":"3888171","OBJECT_TYPE":"PAYLOAD","SEMIMAJOR_AXIS":"6925.322","MEAN_ANOMALY":"269.7018","OBJECT_NAME":"STARLINK-1271","EPOCH":"2023-04-15T16:34:06.976992","PERIAPSIS":"546.085","REF_FRAME":"TEME","ELEMENT_SET_NO":"999","BSTAR":"0.00013605000000","MEAN_MOTION_DDOT":"0.0000000000000","MEAN_MOTION_DOT":"0.00001746","RA_OF_ASC_NODE":"100.6488","MEAN_ELEMENT_THEORY":"SGP4","SITE":"AFETR"},{"PERIOD":"95.593","OBJECT_ID":"2020-012AT","ARG_OF_PERICENTER":"67.5328","COUNTRY_CODE":"US","RCS_SIZE":"LARGE","LAUNCH_DATE":"2020-02-17","ECCENTRICITY":"0.00012090","CENTER_NAME":"EARTH","DECAY_DATE":null,"NORAD_CAT_ID":"45219","TLE_LINE2":"2 45219  53.0561  79.7746 0001209  67.5328 292.5789 15.06393907175824","MEAN_MOTION":"15.06393907","INCLINATION":"53.0561","TLE_LINE1":"1 45219U 20012AT  23105.88756680  .00000579  00000-0  57798-4 0  9996","APOAPSIS":"548.070","EPHEMERIS_TYPE":"0","REV_AT_EPOCH":"17582","ELEMENT_SET_NO":"999","REF_FRAME":"TEME","PERIAPSIS":"546.395","SITE":"AFETR","MEAN_ELEMENT_THEORY":"SGP4","RA_OF_ASC_NODE":"79.7746","BSTAR":"0.00005779800000","MEAN_MOTION_DOT":"0.00000579","MEAN_MOTION_DDOT":"0.0000000000000","TIME_SYSTEM":"UTC","FILE":"3888171","OBJECT_TYPE":"PAYLOAD","GP_ID":"230127824","CLASSIFICATION_TYPE":"U","EPOCH":"2023-04-15T21:18:05.771520","OBJECT_NAME":"STARLINK-1187","SEMIMAJOR_AXIS":"6925.367","MEAN_ANOMALY":"292.5789"},{"ELEMENT_SET_NO":"999","REF_FRAME":"TEME","PERIAPSIS":"546.321","SITE":"AFETR","MEAN_ELEMENT_THEORY":"SGP4","RA_OF_ASC_NODE":"82.7256","BSTAR":"0.00161830000000","MEAN_MOTION_DOT":"0.00023935","MEAN_MOTION_DDOT":"0.0000000000000","TIME_SYSTEM":"UTC","FILE":"3887974","OBJECT_TYPE":"PAYLOAD","GP_ID":"230095813","CLASSIFICATION_TYPE":"U","EPOCH":"2023-04-15T05:27:59.900832","OBJECT_NAME":"STARLINK-1189","SEMIMAJOR_AXIS":"6925.211","MEAN_ANOMALY":"269.4280","PERIOD":"95.589","OBJECT_ID":"2020-012AV","ARG_OF_PERICENTER":"90.6834","COUNTRY_CODE":"US","RCS_SIZE":"LARGE","ECCENTRICITY":"0.00010900","LAUNCH_DATE":"2020-02-17","CENTER_NAME":"EARTH","NORAD_CAT_ID":"45221","DECAY_DATE":null,"TLE_LINE2":"2 45221  53.0540  82.7256 0001090  90.6834 269.4280 15.06444995175712","MEAN_MOTION":"15.06444995","INCLINATION":"53.0540","TLE_LINE1":"1 45221U 20012AV  23105.22777663  .00023935  00000-0  16183-2 0  9993","EPHEMERIS_TYPE":"0","APOAPSIS":"547.831","REV_AT_EPOCH":"17571"},{"ELEMENT_SET_NO":"999","REF_FRAME":"TEME","PERIAPSIS":"545.081","SITE":"AFETR","MEAN_ELEMENT_THEORY":"SGP4","RA_OF_ASC_NODE":"79.7132","MEAN_MOTION_DOT":"0.00003858","MEAN_MOTION_DDOT":"0.0000000000000","BSTAR":"0.00027769000000","OBJECT_TYPE":"PAYLOAD","FILE":"3888171","TIME_SYSTEM":"UTC","CLASSIFICATION_TYPE":"U","GP_ID":"230126827","EPOCH":"2023-04-15T21:34:00.978816","OBJECT_NAME":"STARLINK-1191","MEAN_ANOMALY":"280.3554","SEMIMAJOR_AXIS":"6925.324","ARG_OF_PERICENTER":"79.7778","PERIOD":"95.592","OBJECT_ID":"2020-012AW","COUNTRY_CODE":"US","RCS_SIZE":"LARGE","LAUNCH_DATE":"2020-02-17","CENTER_NAME":"EARTH","ECCENTRICITY":"0.00030430","DECAY_DATE":null,"NORAD_CAT_ID":"45222","TLE_LINE2":"2 45222  53.0526  79.7132 0003043  79.7778 280.3554 15.06408115175812","MEAN_MOTION":"15.06408115","TLE_LINE1":"1 45222U 20012AW  23105.89862244  .00003858  00000-0  27769-3 0  9992","EPHEMERIS_TYPE":"0","APOAPSIS":"549.296","INCLINATION":"53.0526","REV_AT_EPOCH":"17581"}];
